[{"OBJECT_NAME":"STARLINK-32762","OBJECT_ID":"2025-014P","EPOCH":"2026-03-09T14:01:59.262816","MEAN_MOTION":15.27587667,"ECCENTRICITY":0.0001379,"INCLINATION":43,"RA_OF_ASC_NODE":158.2437,"ARG_OF_PERICENTER":259.5202,"MEAN_ANOMALY":100.5494,"EPHEMERIS_TYPE":0,"CLASSIFICATION_TYPE":"U","NORAD_CAT_ID":62748,"ELEMENT_SET_NO":999,"REV_AT_EPOCH":6320,"BSTAR":0.0010081,"MEAN_MOTION_DOT":0.00027589,"MEAN_MOTION_DDOT":0},{"OBJECT_NAME":"OBJECT D","OBJECT_ID":"2025-197D","EPOCH":"2026-03-09T23:30:56.303712","MEAN_MOTION":15.25287442,"ECCENTRICITY":0.00144425,"INCLINATION":97.4091,"RA_OF_ASC_NODE":257.3677,"ARG_OF_PERICENTER":3.398,"MEAN_ANOMALY":356.7353,"EPHEMERIS_TYPE":0,"CLASSIFICATION_TYPE":"U","NORAD_CAT_ID":65491,"ELEMENT_SET_NO":999,"REV_AT_EPOCH":2822,"BSTAR":0.00037200129,"MEAN_MOTION_DOT":9.321e-5,"MEAN_MOTION_DDOT":0}]
